RADUGA 1                
1 08513U 75123A   24199.79566823  .00000019  00000+0  00000+0 0  9994
2 08513   4.6129 277.7103 0006781 248.0147 123.4851  1.00255669187808
RADUGA 2                
1 09416U 76092A   24200.15413449 -.00000017  00000+0  00000+0 0  9990
2 09416   5.2833 279.9915 0026584  18.5573 123.0873  1.00295610122327
RADUGA 3                
1 10159U 77071A   24199.77915098 -.00000321  00000+0  00000+0 0  9994
2 10159   5.9144 283.0062 0009127 261.3581 140.0910  1.00314317170033
RADUGA 4                
1 10987U 78073A   24199.91207617  .00000132  00000+0  00000+0 0  9992
2 10987   6.5609 287.0771 0008429  18.0970  11.9219  1.00210918112596
RADUGA 5                
1 11343U 79035A   24199.78452260 -.00000161  00000+0  00000+0 0  9992
2 11343   7.0446 290.2368 0006262 196.9777 176.5189  1.00278260122342
RADUGA 6                
1 11708U 80016A   24199.93377859  .00000169  00000+0  00000+0 0  9992
2 11708   7.4341 293.7473 0002598 231.7371 148.6460  1.00280233115152
RADUGA 7                
1 12003U 80081A   24199.56843316  .00000145  00000+0  00000+0 0  9992
2 12003   7.6408 295.9673 0009637 280.5770 120.2133  1.00222296116293
RADUGA 8                
1 12351U 81027A   24200.06772123 -.00000005  00000+0  00000+0 0  9990
2 12351   7.9790 296.4013 0080995 250.8118 128.3284  1.00355167115516
RADUGA 9                
1 12618U 81069A   24199.94424365  .00000176  00000+0  00000+0 0  9996
2 12618   8.2363 299.8530 0004181 176.5462 195.3154  1.00254070 40330
RADUGA 10               
1 12897U 81102A   24199.85674604 -.00000104  00000+0  00000+0 0  9998
2 12897   8.3378 300.9691 0005458 205.8670 176.3973  1.00294758110392
RADUGA 11               
1 13669U 82113A   24199.58144476 -.00000069  00000+0  00000+0 0  9998
2 13669  10.5947 316.0272 0039770 273.3166 125.4306  0.97709018114703
RADUGA 12               
1 13974U 83028A   24198.86519122  .00000024  00000+0  00000+0 0  9997
2 13974   9.6477 311.5330 0001704 156.8206 203.3455  1.00270898162359
RADUGA 13               
1 14307U 83088A   24199.68185118 -.00000087  00000+0  00000+0 0  9999
2 14307  10.8819 317.4894 0015538  59.7417 187.5084  0.98174627112073
RADUGA 14               
1 14725U 84016A   24199.86646519 -.00000165  00000+0  00000+0 0  9999
2 14725   9.9314 315.6451 0005218 163.1499 213.8903  1.00287418111090
RADUGA 15               
1 15057U 84063A   24200.00159324  .00000151  00000+0  00000+0 0  9996
2 15057  10.0734 316.6500 0005801 186.3871 176.6137  1.00309546134078
RADUGA 16               
1 15946U 85070A   24199.70468112 -.00000205  00000+0  00000+0 0  9995
2 15946  10.6428 321.5079 0002669 200.3827 357.1089  1.00261092115214
RADUGA 17               
1 16250U 85107A   24199.04708494 -.00000016  00000+0  00000+0 0  9992
2 16250  10.8004 323.0048 0015438 204.2556 144.0692  1.00181040144655
RADUGA 18               
1 16497U 86007A   24199.60408294 -.00000156  00000+0  00000+0 0  9997
2 16497  11.6573 325.8188 0074952 183.5286 187.3073  0.98815078138958
RADUGA 19               
1 17046U 86082A   24200.13577271 -.00000202  00000+0  00000+0 0  9996
2 17046  12.1877 329.9092 0014312 171.6135 181.7033  0.98462203136079
RADUGA 20               
1 17611U 87028A   24199.90327914 -.00000066  00000+0  00000+0 0  9992
2 17611  14.2698 333.2624 0030925 156.6786  19.4647  0.95960777131601
RADUGA 21               
1 18631U 87100A   24199.26772483 -.00000261  00000+0  00000+0 0  9997
2 18631  12.3110 330.3255 0003302 167.5536 184.0276  1.00207713134064
RADUGA 22               
1 19596U 88095A   24200.03327689  .00000145  00000+0  00000+0 0  9994
2 19596  12.4229 334.9234 0008499 170.2512 197.5062  1.00350097114694
RADUGA 23               
1 19928U 89030A   24199.50422425  .00000140  00000+0  00000+0 0  9991
2 19928  12.6188 336.7725 0022690 183.3597 357.4045  1.00216349127830
RADUGA-1 1              
1 20083U 89048A   24199.76646891 -.00000214  00000+0  00000+0 0  9990
2 20083  13.4556 339.9511 0022226 136.6417 225.9434  0.98710209124374
RADUGA 24               
1 20367U 89098A   24200.37344075 -.00000252  00000+0  00000+0 0  9991
2 20367  13.2591 338.8383 0002656 199.3416 346.5691  1.00220795126020
RADUGA 25               
1 20499U 90016A   24199.97302580 -.00000012  00000+0  00000+0 0  9991
2 20499  13.0555 339.6187 0006580 174.9944  10.8967  1.00376357125932
RADUGA 26               
1 21016U 90112A   24200.04859892  .00000075  00000+0  00000+0 0  9996
2 21016  13.4646 342.8849 0006485 122.9888 261.9288  1.00287692123237
RADUGA-1 2              
1 21038U 90116A   24200.04939103  .00000047  00000+0  00000+0 0  9997
2 21038  13.5037 342.9356 0007865 131.0856 259.5746  1.00226781122906
RADUGA 27               
1 21132U 91014A   24200.37413694 -.00000274  00000+0  00000+0 0  9991
2 21132  13.9923 342.1767 0003466 144.2557  42.2354  1.00178916122294
RADUGA 28               
1 21821U 91087A   24199.77864381 -.00000359  00000+0  00000+0 0  9994
2 21821  13.8876 346.1661 0008131 155.1441 186.3676  1.00317798119307
RADUGA 29               
1 22557U 93013A   24199.50848836  .00000035  00000+0  00000+0 0  9990
2 22557  14.2213 350.3207 0007510 145.6000  44.9788  1.00163900114663
RADUGA 30               
1 22836U 93062A   24200.44200005 -.00000131  00000+0  00000+0 0  9998
2 22836  14.3324 352.3332 0001117 277.1412 264.8689  1.00261132112761
RADUGA-1 3              
1 22981U 94008A   24199.87360442 -.00000306  00000+0  00000+0 0  9990
2 22981  14.4495 353.4578 0004272 147.9775 208.0339  1.00295357111461
RADUGA 31               
1 23010U 94012A   24199.90767574  .00000120  00000+0  00000+0 0  9993
2 23010  14.4162 353.4675 0005099 136.0332 177.2911  1.00271941111332
RADUGA 32               
1 23448U 94087A   24200.44200005 -.00000132  00000+0  00000+0 0  9997
2 23448  14.4917 356.2109 0006819 219.7171 318.3682  1.00263817125936
RADUGA-1 4              
1 25642U 99010A   24199.57768469  .00000097  00000+0  00000+0 0  9999
2 25642  15.4405   7.4194 0002582 233.1809 313.3491  1.00210544 92954
RADUGA-1 5              
1 26477U 00049A   24199.08758872  .00000070  00000+0  00000+0 0  9994
2 26477  13.5624  13.1296 0004469  98.5724 270.8406  1.00220492 87405
RADUGA-1 6              
1 26936U 01045A   24199.71477574 -.00000128  00000+0  00000+0 0  9993
2 26936  13.9525  19.6331 0018434 183.5391  10.3187  0.97745353 81761
RADUGA-1 7              
1 28194U 04010A   24199.07784699  .00000056  00000+0  00000+0 0  9993
2 28194  12.8605  26.1695 0003849 190.5779 161.3564  1.00370167 74393
RADUGA-1M 1             
1 32373U 07058A   24199.98766962 -.00000246  00000+0  00000+0 0  9997
2 32373   8.6015  58.1764 0002978  53.2896 133.0485  0.99398296 61365
RADUGA-1 8              
1 34264U 09010A   24199.41606655 -.00000277  00000+0  00000+0 0  9992
2 34264  10.7309  47.9938 0012038  20.5692 333.7656  0.99827232 56184
RADUGA-1M 2             
1 36358U 10002A   24199.87090672 -.00000169  00000+0  00000+0 0  9997
2 36358   1.7986  88.1097 0001666  30.7142 215.9062  1.00270928 43075
RADUGA-1M 3             
1 39375U 13062A   24200.29030840  .00000166  00000+0  00000+0 0  9994
2 39375   4.1697  80.9068 0003795 244.8043 110.3949  1.00274165 39113
